{"type": "FeatureCollection", "features": [ {"type": "Feature", "properties": {"norad_id": 66052, "name": "HRC MONOBLOCK CAMERA", "group": "stations", "lat": -19.621300356850057, "lon": -55.17884429252054, "alt_km": 404.4599211366349, "timestamp": "2025-12-19T08:58:48.108786+00:00", "meta": {"OBJECT_NAME": "HRC MONOBLOCK CAMERA", "OBJECT_ID": "1998-067XR", "EPOCH": "2025-12-18T22:50:37.822560", "MEAN_MOTION": 15.54565744, "ECCENTRICITY": 0.00026331, "INCLINATION": 51.6297, "RA_OF_ASC_NODE": 110.5221, "ARG_OF_PERICENTER": 211.9232, "MEAN_ANOMALY": 148.16, "EPHEMERIS_TYPE": 0, "CLASSIFICATION_TYPE": "U", "NORAD_CAT_ID": 66052, "ELEMENT_SET_NO": 999, "REV_AT_EPOCH": 980, "BSTAR": 0.00046533518, "MEAN_MOTION_DOT": 0.00030942, "MEAN_MOTION_DDOT": 0}, "tle": {"line1": "1 66052U 98067XR  25352.95182665  .00030942  00000+0  46534-3 0  9990", "line2": "2 66052  51.6297 110.5221 0002633 211.9232 148.1600 15.54565744  9800"}}, "geometry": {"type": "Point", "coordinates": [-55.17884429252054, -19.621300356850057]}}, {"type": "Feature", "properties": {"norad_id": 66174, "name": "HTV-X1", "group": "stations", "lat": -12.326677087322855, "lon": 99.65339432855791, "alt_km": 419.29931707321794, "timestamp": "2025-12-19T08:58:48.108797+00:00", "meta": {"OBJECT_NAME": "HTV-X1", "OBJECT_ID": "2025-241A", "EPOCH": "2025-12-18T16:01:23.678688", "MEAN_MOTION": 15.49654558, "ECCENTRICITY": 0.00031819, "INCLINATION": 51.6314, "RA_OF_ASC_NODE": 113.1238, "ARG_OF_PERICENTER": 267.6136, "MEAN_ANOMALY": 92.4488, "EPHEMERIS_TYPE": 0, "CLASSIFICATION_TYPE": "U", "NORAD_CAT_ID": 66174, "ELEMENT_SET_NO": 999, "REV_AT_EPOCH": 51, "BSTAR": 0.000138424, "MEAN_MOTION_DOT": 7.358e-05, "MEAN_MOTION_DDOT": 0}, "tle": {"line1": "1 66174U 25241A   25352.66763517  .00007358  00000+0  13842-3 0  9999", "line2": "2 66174  51.6314 113.1238 0003181 267.6136  92.4488 15.49654558   512"}}, "geometry": {"type": "Point", "coordinates": [99.65339432855791, -12.326677087322855]}}, {"type": "Feature", "properties": {"norad_id": 66515, "name": "SZ-21 MODULE", "group": "stations", "lat": -12.732677682526884, "lon": -39.25718906339579, "alt_km": 377.70333190662313, "timestamp": "2025-12-19T08:58:48.108807+00:00", "meta": {"OBJECT_NAME": "SZ-21 MODULE", "OBJECT_ID": "2025-246C", "EPOCH": "2025-12-18T08:31:24.923712", "MEAN_MOTION": 15.62772734, "ECCENTRICITY": 0.00058547, "INCLINATION": 41.4774, "RA_OF_ASC_NODE": 341.7845, "ARG_OF_PERICENTER": 290.1533, "MEAN_ANOMALY": 69.8677, "EPHEMERIS_TYPE": 0, "CLASSIFICATION_TYPE": "U", "NORAD_CAT_ID": 66515, "ELEMENT_SET_NO": 999, "REV_AT_EPOCH": 532, "BSTAR": 0.00027860354, "MEAN_MOTION_DOT": 0.00025551, "MEAN_MOTION_DDOT": 0}, "tle": {"line1": "1 66515U 25246C   25352.35514958  .00025551  00000+0  27860-3 0  9992", "line2": "2 66515  41.4774 341.7845 0005854 290.1533  69.8677 15.62772734  5326"}}, "geometry": {"type": "Point", "coordinates": [-39.25718906339579, -12.732677682526884]}}, {"type": "Feature", "properties": {"norad_id": 66645, "name": "SHENZHOU-22", "group": "stations", "lat": -5.181717909482209, "lon": -29.473155187654417, "alt_km": 390.04764305171284, "timestamp": "2025-12-19T08:58:48.108820+00:00", "meta": {"OBJECT_NAME": "SHENZHOU-22", "OBJECT_ID": "2025-272A", "EPOCH": "2025-12-18T22:15:16.316352", "MEAN_MOTION": 15.59443301, "ECCENTRICITY": 0.00076984, "INCLINATION": 41.4683, "RA_OF_ASC_NODE": 339.1361, "ARG_OF_PERICENTER": 85.4974, "MEAN_ANOMALY": 274.6744, "EPHEMERIS_TYPE": 0, "CLASSIFICATION_TYPE": "U", "NORAD_CAT_ID": 66645, "ELEMENT_SET_NO": 999, "REV_AT_EPOCH": 26357, "BSTAR": 0.00026140428, "MEAN_MOTION_DOT": 0.0002103, "MEAN_MOTION_DDOT": 0}, "tle": {"line1": "1 66645U 25272A   25352.92727218  .00021030  00000+0  26140-3 0  9991", "line2": "2 66645  41.4683 339.1361 0007698  85.4974 274.6744 15.59443301263570"}}, "geometry": {"type": "Point", "coordinates": [-29.473155187654417, -5.181717909482209]}}, {"type": "Feature", "properties": {"norad_id": 66664, "name": "SOYUZ-MS 28", "group": "stations", "lat": -12.326675341840435, "lon": 99.65339579768589, "alt_km": 419.2993169736719, "timestamp": "2025-12-19T08:58:48.108832+00:00", "meta": {"OBJECT_NAME": "SOYUZ-MS 28", "OBJECT_ID": "2025-275A", "EPOCH": "2025-12-18T16:01:23.678688", "MEAN_MOTION": 15.49654558, "ECCENTRICITY": 0.00031819, "INCLINATION": 51.6314, "RA_OF_ASC_NODE": 113.1238, "ARG_OF_PERICENTER": 267.6136, "MEAN_ANOMALY": 92.4488, "EPHEMERIS_TYPE": 0, "CLASSIFICATION_TYPE": "U", "NORAD_CAT_ID": 66664, "ELEMENT_SET_NO": 999, "REV_AT_EPOCH": 128, "BSTAR": 0.000138424, "MEAN_MOTION_DOT": 7.358e-05, "MEAN_MOTION_DDOT": 0}, "tle": {"line1": "1 66664U 25275A   25352.66763517  .00007358  00000+0  13842-3 0  9990", "line2": "2 66664  51.6314 113.1238 0003181 267.6136  92.4488 15.49654558  1281"}}, "geometry": {"type": "Point", "coordinates": [99.65339579768589, -12.326675341840435]}}, {"type": "Feature", "properties": {"norad_id": 66906, "name": "1998-067XS", "group": "stations", "lat": 30.92119456183966, "lon": 137.83667940105158, "alt_km": 412.12740508831484, "timestamp": "2025-12-19T08:58:48.108842+00:00", "meta": {"OBJECT_NAME": "1998-067XS", "OBJECT_ID": "1998-067XS", "EPOCH": "2025-12-18T14:14:47.325984", "MEAN_MOTION": 15.50877887, "ECCENTRICITY": 0.00030668, "INCLINATION": 51.6311, "RA_OF_ASC_NODE": 113.3804, "ARG_OF_PERICENTER": 230.517, "MEAN_ANOMALY": 129.5548, "EPHEMERIS_TYPE": 0, "CLASSIFICATION_TYPE": "U", "NORAD_CAT_ID": 66906, "ELEMENT_SET_NO": 999, "REV_AT_EPOCH": 252, "BSTAR": 0.00040765177, "MEAN_MOTION_DOT": 0.00023614, "MEAN_MOTION_DDOT": 0}, "tle": {"line1": "1 66906U 98067XS  25352.59360331  .00023614  00000+0  40765-3 0  9994", "line2": "2 66906  51.6311 113.3804 0003066 230.5170 129.5548 15.50877887  2528"}}, "geometry": {"type": "Point", "coordinates": [137.83667940105158, 30.92119456183966]}}, {"type": "Feature", "properties": {"norad_id": 66907, "name": "1998-067XT", "group": "stations", "lat": 51.079255439816826, "lon": -171.71777643305558, "alt_km": 405.79721573295683, "timestamp": "2025-12-19T08:58:48.108852+00:00", "meta": {"OBJECT_NAME": "1998-067XT", "OBJECT_ID": "1998-067XT", "EPOCH": "2025-12-18T14:04:54.777504", "MEAN_MOTION": 15.52162368, "ECCENTRICITY": 0.00039418, "INCLINATION": 51.6304, "RA_OF_ASC_NODE": 113.334, "ARG_OF_PERICENTER": 262.1658, "MEAN_ANOMALY": 97.8884, "EPHEMERIS_TYPE": 0, "CLASSIFICATION_TYPE": "U", "NORAD_CAT_ID": 66907, "ELEMENT_SET_NO": 999, "REV_AT_EPOCH": 252, "BSTAR": 0.0008765902, "MEAN_MOTION_DOT": 0.0005395, "MEAN_MOTION_DDOT": 0}, "tle": {"line1": "1 66907U 98067XT  25352.58674511  .00053950  00000+0  87659-3 0  9991", "line2": "2 66907  51.6304 113.3340 0003941 262.1658  97.8884 15.52162368  2523"}}, "geometry": {"type": "Point", "coordinates": [-171.71777643305558, 51.079255439816826]}}, {"type": "Feature", "properties": {"norad_id": 66908, "name": "1998-067XU", "group": "stations", "lat": 51.517102892163344, "lon": -165.2792836615818, "alt_km": 405.47547778549324, "timestamp": "2025-12-19T08:58:48.108862+00:00", "meta": {"OBJECT_NAME": "1998-067XU", "OBJECT_ID": "1998-067XU", "EPOCH": "2025-12-18T14:03:56.443680", "MEAN_MOTION": 15.52259493, "ECCENTRICITY": 0.00039838, "INCLINATION": 51.6306, "RA_OF_ASC_NODE": 113.3296, "ARG_OF_PERICENTER": 260.0245, "MEAN_ANOMALY": 100.0295, "EPHEMERIS_TYPE": 0, "CLASSIFICATION_TYPE": "U", "NORAD_CAT_ID": 66908, "ELEMENT_SET_NO": 999, "REV_AT_EPOCH": 252, "BSTAR": 0.00087908108, "MEAN_MOTION_DOT": 0.00054298, "MEAN_MOTION_DDOT": 0}, "tle": {"line1": "1 66908U 98067XU  25352.58606995  .00054298  00000+0  87908-3 0  9996", "line2": "2 66908  51.6306 113.3296 0003983 260.0245 100.0295 15.52259493  2520"}}, "geometry": {"type": "Point", "coordinates": [-165.2792836615818, 51.517102892163344]}}, {"type": "Feature", "properties": {"norad_id": 66909, "name": "SILVERSAT", "group": "stations", "lat": 51.55805938224909, "lon": -157.09187000459104, "alt_km": 404.93507613056954, "timestamp": "2025-12-19T08:58:48.108886+00:00", "meta": {"OBJECT_NAME": "SILVERSAT", "OBJECT_ID": "1998-067XV", "EPOCH": "2025-12-18T14:02:44.424960", "MEAN_MOTION": 15.52406005, "ECCENTRICITY": 0.00038673, "INCLINATION": 51.6304, "RA_OF_ASC_NODE": 113.3244, "ARG_OF_PERICENTER": 263.4051, "MEAN_ANOMALY": 96.6498, "EPHEMERIS_TYPE": 0, "CLASSIFICATION_TYPE": "U", "NORAD_CAT_ID": 66909, "ELEMENT_SET_NO": 999, "REV_AT_EPOCH": 252, "BSTAR": 0.00095009624, "MEAN_MOTION_DOT": 0.00059069, "MEAN_MOTION_DDOT": 0}, "tle": {"line1": "1 66909U 98067XV  25352.58523640  .00059069  00000+0  95010-3 0  9996", "line2": "2 66909  51.6304 113.3244 0003867 263.4051  96.6498 15.52406005  2523"}}, "geometry": {"type": "Point", "coordinates": [-157.09187000459104, 51.55805938224909]}}, {"type": "Feature", "properties": {"norad_id": 66910, "name": "1998-067XW", "group": "stations", "lat": 50.01860896203525, "lon": -141.5029333188691, "alt_km": 404.8013602568508, "timestamp": "2025-12-19T08:58:48.108899+00:00", "meta": {"OBJECT_NAME": "1998-067XW", "OBJECT_ID": "1998-067XW", "EPOCH": "2025-12-18T14:00:11.133216", "MEAN_MOTION": 15.5243188, "ECCENTRICITY": 0.00043225, "INCLINATION": 51.6304, "RA_OF_ASC_NODE": 113.3129, "ARG_OF_PERICENTER": 240.7939, "MEAN_ANOMALY": 119.2619, "EPHEMERIS_TYPE": 0, "CLASSIFICATION_TYPE": "U", "NORAD_CAT_ID": 66910, "ELEMENT_SET_NO": 999, "REV_AT_EPOCH": 252, "BSTAR": 0.00081329162, "MEAN_MOTION_DOT": 0.00050492, "MEAN_MOTION_DDOT": 0}, "tle": {"line1": "1 66910U 98067XW  25352.58346219  .00050492  00000+0  81329-3 0  9992", "line2": "2 66910  51.6304 113.3129 0004322 240.7939 119.2619 15.52431880  2523"}}, "geometry": {"type": "Point", "coordinates": [-141.5029333188691, 50.01860896203525]}}]}